{
  "type": "FeatureCollection",
  "features": [
    {
      "type": "Feature",
      "properties": {
        "norad_id": 66327,
        "name": "STARLINK-35507",
        "group": "last-30-days",
        "lat": -33.39937045039353,
        "lon": 0.7417505119383072,
        "alt_km": 415.9729245641065,
        "timestamp": "2025-12-02T07:10:07.864545+00:00",
        "meta_object_name": "STARLINK-35507",
        "meta_object_id": "2025-253J",
        "meta_epoch": "2025-11-30T16:45:21.748032",
        "meta_mean_motion": 15.50603191,
        "meta_eccentricity": 0.00014781,
        "meta_inclination": 43.0002,
        "meta_ra_of_asc_node": 55.147,
        "meta_arg_of_pericenter": 276.0037,
        "meta_mean_anomaly": 84.0654,
        "meta_ephemeris_type": 0,
        "meta_classification_type": "U",
        "meta_norad_cat_id": 66327,
        "meta_element_set_no": 999,
        "meta_rev_at_epoch": 506,
        "meta_bstar": 0.0017790984,
        "meta_mean_motion_dot": 0.00105538,
        "meta_mean_motion_ddot": 0,
        "tle_line1": "1 66327U 25253J   25334.69816838  .00105538  00000+0  17791-2 0  9995",
        "tle_line2": "2 66327  43.0002  55.1470 0001478 276.0037  84.0654 15.50603191  5061"
      },
      "geometry": {
        "type": "Point",
        "coordinates": [
          0.7417505119383072,
          -33.39937045039353
        ]
      }
    },
    {
      "type": "Feature",
      "properties": {
        "norad_id": 66328,
        "name": "STARLINK-35460",
        "group": "last-30-days",
        "lat": -24.5201900763129,
        "lon": 16.43085059674584,
        "alt_km": 415.7696464541841,
        "timestamp": "2025-12-02T07:10:07.864555+00:00",
        "meta_object_name": "STARLINK-35460",
        "meta_object_id": "2025-253K",
        "meta_epoch": "2025-12-01T14:19:31.564704",
        "meta_mean_motion": 15.50606087,
        "meta_eccentricity": 0.00018266,
        "meta_inclination": 43.0003,
        "meta_ra_of_asc_node": 49.8457,
        "meta_arg_of_pericenter": 291.64,
        "meta_mean_anomaly": 68.4265,
        "meta_ephemeris_type": 0,
        "meta_classification_type": "U",
        "meta_norad_cat_id": 66328,
        "meta_element_set_no": 999,
        "meta_rev_at_epoch": 520,
        "meta_bstar": 0.0016742687,
        "meta_mean_motion_dot": 0.0009923,
        "meta_mean_motion_ddot": 0,
        "tle_line1": "1 66328U 25253K   25335.59689311  .00099230  00000+0  16743-2 0  9997",
        "tle_line2": "2 66328  43.0003  49.8457 0001826 291.6400  68.4265 15.50606087  5209"
      },
      "geometry": {
        "type": "Point",
        "coordinates": [
          16.43085059674584,
          -24.5201900763129
        ]
      }
    },
    {
      "type": "Feature",
      "properties": {
        "norad_id": 66329,
        "name": "STARLINK-35505",
        "group": "last-30-days",
        "lat": -34.83370308715105,
        "lon": -2.5196101599070633,
        "alt_km": 417.2835118167577,
        "timestamp": "2025-12-02T07:10:07.864566+00:00",
        "meta_object_name": "STARLINK-35505",
        "meta_object_id": "2025-253L",
        "meta_epoch": "2025-12-01T20:00:01.999008",
        "meta_mean_motion": 15.50612338,
        "meta_eccentricity": 0.000135,
        "meta_inclination": 43.0007,
        "meta_ra_of_asc_node": 48.514,
        "meta_arg_of_pericenter": 284.8369,
        "meta_mean_anomaly": 297.6017,
        "meta_ephemeris_type": 0,
        "meta_classification_type": "U",
        "meta_norad_cat_id": 66329,
        "meta_element_set_no": 999,
        "meta_rev_at_epoch": 517,
        "meta_bstar": -0.0016109,
        "meta_mean_motion_dot": -0.00093829,
        "meta_mean_motion_ddot": 0,
        "tle_line1": "1 66329U 25253L   25335.83335647 -.00093829  00000+0 -16109-2 0  9991",
        "tle_line2": "2 66329  43.0007  48.5140 0001350 284.8369 297.6017 15.50612338  5172"
      },
      "geometry": {
        "type": "Point",
        "coordinates": [
          -2.5196101599070633,
          -34.83370308715105
        ]
      }
    },
    {
      "type": "Feature",
      "properties": {
        "norad_id": 66330,
        "name": "STARLINK-35512",
        "group": "last-30-days",
        "lat": -42.51827191379492,
        "lon": -54.39002227383033,
        "alt_km": 446.20436008478464,
        "timestamp": "2025-12-02T07:10:07.864577+00:00",
        "meta_object_name": "STARLINK-35512",
        "meta_object_id": "2025-253M",
        "meta_epoch": "2025-12-01T20:00:01.999008",
        "meta_mean_motion": 15.40588538,
        "meta_eccentricity": 0.0002384,
        "meta_inclination": 43.0006,
        "meta_ra_of_asc_node": 48.5706,
        "meta_arg_of_pericenter": 289.5125,
        "meta_mean_anomaly": 268.9678,
        "meta_ephemeris_type": 0,
        "meta_classification_type": "U",
        "meta_norad_cat_id": 66330,
        "meta_element_set_no": 999,
        "meta_rev_at_epoch": 517,
        "meta_bstar": 0.0010747,
        "meta_mean_motion_dot": 0.00044687,
        "meta_mean_motion_ddot": 0,
        "tle_line1": "1 66330U 25253M   25335.83335647  .00044687  00000+0  10747-2 0  9991",
        "tle_line2": "2 66330  43.0006  48.5706 0002384 289.5125 268.9678 15.40588538  5178"
      },
      "geometry": {
        "type": "Point",
        "coordinates": [
          -54.39002227383033,
          -42.51827191379492
        ]
      }
    },
    {
      "type": "Feature",
      "properties": {
        "norad_id": 66331,
        "name": "STARLINK-35257",
        "group": "last-30-days",
        "lat": -21.007578024387367,
        "lon": 21.389795680990787,
        "alt_km": 415.68147738374046,
        "timestamp": "2025-12-02T07:10:07.864588+00:00",
        "meta_object_name": "STARLINK-35257",
        "meta_object_id": "2025-253N",
        "meta_epoch": "2025-12-01T14:18:02.532096",
        "meta_mean_motion": 15.50609928,
        "meta_eccentricity": 0.00018589,
        "meta_inclination": 43.0005,
        "meta_ra_of_asc_node": 49.8389,
        "meta_arg_of_pericenter": 278.6085,
        "meta_mean_anomaly": 81.4565,
        "meta_ephemeris_type": 0,
        "meta_classification_type": "U",
        "meta_norad_cat_id": 66331,
        "meta_element_set_no": 999,
        "meta_rev_at_epoch": 520,
        "meta_bstar": 0.0017271486,
        "meta_mean_motion_dot": 0.00102432,
        "meta_mean_motion_ddot": 0,
        "tle_line1": "1 66331U 25253N   25335.59586264  .00102432  00000+0  17271-2 0  9990",
        "tle_line2": "2 66331  43.0005  49.8389 0001858 278.6085  81.4565 15.50609928  5203"
      },
      "geometry": {
        "type": "Point",
        "coordinates": [
          21.389795680990787,
          -21.007578024387367
        ]
      }
    },
    {
      "type": "Feature",
      "properties": {
        "norad_id": 66332,
        "name": "STARLINK-35322",
        "group": "last-30-days",
        "lat": -26.77266296060844,
        "lon": 12.969154266158133,
        "alt_km": 416.17488538102043,
        "timestamp": "2025-12-02T07:10:07.864601+00:00",
        "meta_object_name": "STARLINK-35322",
        "meta_object_id": "2025-253P",
        "meta_epoch": "2025-12-01T14:20:30.831648",
        "meta_mean_motion": 15.50602448,
        "meta_eccentricity": 0.00015639,
        "meta_inclination": 43.0007,
        "meta_ra_of_asc_node": 49.8523,
        "meta_arg_of_pericenter": 284.4587,
        "meta_mean_anomaly": 75.61,
        "meta_ephemeris_type": 0,
        "meta_classification_type": "U",
        "meta_norad_cat_id": 66332,
        "meta_element_set_no": 999,
        "meta_rev_at_epoch": 520,
        "meta_bstar": 0.0015013415,
        "meta_mean_motion_dot": 0.00088815,
        "meta_mean_motion_ddot": 0,
        "tle_line1": "1 66332U 25253P   25335.59757907  .00088815  00000+0  15013-2 0  9995",
        "tle_line2": "2 66332  43.0007  49.8523 0001563 284.4587  75.6100 15.50602448  5201"
      },
      "geometry": {
        "type": "Point",
        "coordinates": [
          12.969154266158133,
          -26.77266296060844
        ]
      }
    },
    {
      "type": "Feature",
      "properties": {
        "norad_id": 66333,
        "name": "STARLINK-35400",
        "group": "last-30-days",
        "lat": -22.15564637038319,
        "lon": 19.819241729454653,
        "alt_km": 415.8138886189754,
        "timestamp": "2025-12-02T07:10:07.864612+00:00",
        "meta_object_name": "STARLINK-35400",
        "meta_object_id": "2025-253Q",
        "meta_epoch": "2025-12-01T14:18:31.799232",
        "meta_mean_motion": 15.50629788,
        "meta_eccentricity": 0.00025495,
        "meta_inclination": 43.0009,
        "meta_ra_of_asc_node": 49.8398,
        "meta_arg_of_pericenter": 260.7267,
        "meta_mean_anomaly": 99.3305,
        "meta_ephemeris_type": 0,
        "meta_classification_type": "U",
        "meta_norad_cat_id": 66333,
        "meta_element_set_no": 999,
        "meta_rev_at_epoch": 520,
        "meta_bstar": 0.0015288363,
        "meta_mean_motion_dot": 0.00090561,
        "meta_mean_motion_ddot": 0,
        "tle_line1": "1 66333U 25253Q   25335.59620138  .00090561  00000+0  15288-2 0  9996",
        "tle_line2": "2 66333  43.0009  49.8398 0002549 260.7267  99.3305 15.50629788  5207"
      },
      "geometry": {
        "type": "Point",
        "coordinates": [
          19.819241729454653,
          -22.15564637038319
        ]
      }
    }
  ]
}